[{"OBJECT_NAME":"JILIN-01 KUANFU 02B 5","OBJECT_ID":"2024-169E","EPOCH":"2026-03-09T22:46:28.718400","MEAN_MOTION":15.09244096,"ECCENTRICITY":0.00111722,"INCLINATION":97.556,"RA_OF_ASC_NODE":160.0628,"ARG_OF_PERICENTER":294.0678,"MEAN_ANOMALY":65.9381,"EPHEMERIS_TYPE":0,"CLASSIFICATION_TYPE":"U","NORAD_CAT_ID":61193,"ELEMENT_SET_NO":999,"REV_AT_EPOCH":8086,"BSTAR":0.00034816655,"MEAN_MOTION_DOT":5.486e-5,"MEAN_MOTION_DDOT":0},{"OBJECT_NAME":"STARLINK-34985","OBJECT_ID":"2025-191A","EPOCH":"2026-03-09T14:33:28.683072","MEAN_MOTION":15.05636262,"ECCENTRICITY":0.0001733,"INCLINATION":97.602,"RA_OF_ASC_NODE":301.3915,"ARG_OF_PERICENTER":97.4218,"MEAN_ANOMALY":262.7205,"EPHEMERIS_TYPE":0,"CLASSIFICATION_TYPE":"U","NORAD_CAT_ID":65379,"ELEMENT_SET_NO":999,"REV_AT_EPOCH":3025,"BSTAR":0.00036085,"MEAN_MOTION_DOT":5.148e-5,"MEAN_MOTION_DDOT":0}]
